SEEDS II (CO-66)        
1 32791U 08021J   26068.92109284  .00023758  00000+0  84213-3 0  9995
2 32791  97.7519  62.3611 0001448 359.2618   0.8619 15.29097235972108
STARLINK-30872          
1 58225U 23170V   26068.98635394  .00002579  00000+0  10327-3 0  9992
2 58225  43.0032  50.6306 0001549 279.0718  80.9959 15.27564688132018
