[{"OBJECT_NAME":"SEEDS II (CO-66)","OBJECT_ID":"2008-021J","EPOCH":"2026-03-09T22:06:22.421376","MEAN_MOTION":15.29097236,"ECCENTRICITY":0.00014475,"INCLINATION":97.7519,"RA_OF_ASC_NODE":62.3611,"ARG_OF_PERICENTER":359.2618,"MEAN_ANOMALY":0.8619,"EPHEMERIS_TYPE":0,"CLASSIFICATION_TYPE":"U","NORAD_CAT_ID":32791,"ELEMENT_SET_NO":999,"REV_AT_EPOCH":97210,"BSTAR":0.00084213052,"MEAN_MOTION_DOT":0.00023758,"MEAN_MOTION_DDOT":0},{"OBJECT_NAME":"STARLINK-30872","OBJECT_ID":"2023-170V","EPOCH":"2026-03-09T23:40:20.980416","MEAN_MOTION":15.27564688,"ECCENTRICITY":0.00015487,"INCLINATION":43.0032,"RA_OF_ASC_NODE":50.6306,"ARG_OF_PERICENTER":279.0718,"MEAN_ANOMALY":80.9959,"EPHEMERIS_TYPE":0,"CLASSIFICATION_TYPE":"U","NORAD_CAT_ID":58225,"ELEMENT_SET_NO":999,"REV_AT_EPOCH":13201,"BSTAR":0.0001032739,"MEAN_MOTION_DOT":2.579e-5,"MEAN_MOTION_DDOT":0}]
